{"type": "FeatureCollection", "features": [ {"type": "Feature", "properties": {"norad_id": 66336, "name": "STARLINK-35404", "group": "last-30-days", "lat": 40.47307784351727, "lon": 146.07782702789785, "alt_km": 408.346189593849, "timestamp": "2025-12-04T13:51:59.225351+00:00", "meta": {"OBJECT_NAME": "STARLINK-35404", "OBJECT_ID": "2025-253T", "EPOCH": "2025-12-03T12:40:16.785984", "MEAN_MOTION": 15.50633101, "ECCENTRICITY": 8.71e-05, "INCLINATION": 42.9975, "RA_OF_ASC_NODE": 38.5345, "ARG_OF_PERICENTER": 265.211, "MEAN_ANOMALY": 94.865, "EPHEMERIS_TYPE": 0, "CLASSIFICATION_TYPE": "U", "NORAD_CAT_ID": 66336, "ELEMENT_SET_NO": 999, "REV_AT_EPOCH": 550, "BSTAR": 0.0017646328, "MEAN_MOTION_DOT": 0.00104778, "MEAN_MOTION_DDOT": 0}, "tle": {"line1": "1 66336U 25253T   25337.52797206  .00104778  00000+0  17646-2 0  9991", "line2": "2 66336  42.9975  38.5345 0000871 265.2110  94.8650 15.50633101  5500"}}, "geometry": {"type": "Point", "coordinates": [146.07782702789785, 40.47307784351727]}}, {"type": "Feature", "properties": {"norad_id": 66337, "name": "STARLINK-34783", "group": "last-30-days", "lat": -33.3815879358429, "lon": -12.214998034565912, "alt_km": 442.34913818701625, "timestamp": "2025-12-04T13:51:59.225362+00:00", "meta": {"OBJECT_NAME": "STARLINK-34783", "OBJECT_ID": "2025-253U", "EPOCH": "2025-12-04T04:45:52.840800", "MEAN_MOTION": 15.4082153, "ECCENTRICITY": 0.00059492, "INCLINATION": 42.9998, "RA_OF_ASC_NODE": 34.9717, "ARG_OF_PERICENTER": 289.8926, "MEAN_ANOMALY": 70.1289, "EPHEMERIS_TYPE": 0, "CLASSIFICATION_TYPE": "U", "NORAD_CAT_ID": 66337, "ELEMENT_SET_NO": 999, "REV_AT_EPOCH": 560, "BSTAR": 0.0033658207, "MEAN_MOTION_DOT": 0.0014361, "MEAN_MOTION_DDOT": 0}, "tle": {"line1": "1 66337U 25253U   25338.19852825  .00143610  00000+0  33658-2 0  9994", "line2": "2 66337  42.9998  34.9717 0005949 289.8926  70.1289 15.40821530  5607"}}, "geometry": {"type": "Point", "coordinates": [-12.214998034565912, -33.3815879358429]}}, {"type": "Feature", "properties": {"norad_id": 66338, "name": "STARLINK-35477", "group": "last-30-days", "lat": -42.9798759407944, "lon": -57.36624888635026, "alt_km": 446.28054537101525, "timestamp": "2025-12-04T13:51:59.225372+00:00", "meta": {"OBJECT_NAME": "STARLINK-35477", "OBJECT_ID": "2025-253V", "EPOCH": "2025-12-03T05:35:16.634688", "MEAN_MOTION": 15.40809844, "ECCENTRICITY": 5.96e-05, "INCLINATION": 43.0004, "RA_OF_ASC_NODE": 40.627, "ARG_OF_PERICENTER": 180.5282, "MEAN_ANOMALY": 179.5573, "EPHEMERIS_TYPE": 0, "CLASSIFICATION_TYPE": "U", "NORAD_CAT_ID": 66338, "ELEMENT_SET_NO": 999, "REV_AT_EPOCH": 545, "BSTAR": 0.0022359, "MEAN_MOTION_DOT": 0.00094607, "MEAN_MOTION_DDOT": 0}, "tle": {"line1": "1 66338U 25253V   25337.23283142  .00094607  00000+0  22359-2 0  9996", "line2": "2 66338  43.0004  40.6270 0000596 180.5282 179.5573 15.40809844  5458"}}, "geometry": {"type": "Point", "coordinates": [-57.36624888635026, -42.9798759407944]}}, {"type": "Feature", "properties": {"norad_id": 66339, "name": "STARLINK-35443", "group": "last-30-days", "lat": 35.2787026212893, "lon": 81.90924517469053, "alt_km": 439.3389353314824, "timestamp": "2025-12-04T13:51:59.225383+00:00", "meta": {"OBJECT_NAME": "STARLINK-35443", "OBJECT_ID": "2025-253W", "EPOCH": "2025-12-04T08:00:01.999872", "MEAN_MOTION": 15.40705882, "ECCENTRICITY": 0.00014373, "INCLINATION": 43.0004, "RA_OF_ASC_NODE": 33.9235, "ARG_OF_PERICENTER": 269.5286, "MEAN_ANOMALY": 231.1719, "EPHEMERIS_TYPE": 0, "CLASSIFICATION_TYPE": "U", "NORAD_CAT_ID": 66339, "ELEMENT_SET_NO": 999, "REV_AT_EPOCH": 562, "BSTAR": -0.0017457497, "MEAN_MOTION_DOT": -0.00072552, "MEAN_MOTION_DDOT": 0}, "tle": {"line1": "1 66339U 25253W   25338.33335648 -.00072552  00000+0 -17457-2 0  9998", "line2": "2 66339  43.0004  33.9235 0001437 269.5286 231.1719 15.40705882  5625"}}, "geometry": {"type": "Point", "coordinates": [81.90924517469053, 35.2787026212893]}}, {"type": "Feature", "properties": {"norad_id": 66340, "name": "STARLINK-35218", "group": "last-30-days", "lat": 40.07330427175452, "lon": 147.86257900043498, "alt_km": 409.5611893242767, "timestamp": "2025-12-04T13:51:59.225394+00:00", "meta": {"OBJECT_NAME": "STARLINK-35218", "OBJECT_ID": "2025-253X", "EPOCH": "2025-12-04T04:07:21.263232", "MEAN_MOTION": 15.50617051, "ECCENTRICITY": 0.00018189, "INCLINATION": 43.0005, "RA_OF_ASC_NODE": 34.766, "ARG_OF_PERICENTER": 298.9764, "MEAN_ANOMALY": 61.0914, "EPHEMERIS_TYPE": 0, "CLASSIFICATION_TYPE": "U", "NORAD_CAT_ID": 66340, "ELEMENT_SET_NO": 999, "REV_AT_EPOCH": 560, "BSTAR": 0.0013103805, "MEAN_MOTION_DOT": 0.00077402, "MEAN_MOTION_DDOT": 0}, "tle": {"line1": "1 66340U 25253X   25338.17177388  .00077402  00000+0  13104-2 0  9999", "line2": "2 66340  43.0005  34.7660 0001818 298.9764  61.0914 15.50617051  5605"}}, "geometry": {"type": "Point", "coordinates": [147.86257900043498, 40.07330427175452]}}, {"type": "Feature", "properties": {"norad_id": 66341, "name": "STARLINK-35522", "group": "last-30-days", "lat": 42.19584133602684, "lon": 109.09618276376895, "alt_km": 430.71342191604526, "timestamp": "2025-12-04T13:51:59.225405+00:00", "meta": {"OBJECT_NAME": "STARLINK-35522", "OBJECT_ID": "2025-253Y", "EPOCH": "2025-12-04T08:00:01.999872", "MEAN_MOTION": 15.44406871, "ECCENTRICITY": 0.00011106, "INCLINATION": 43.0004, "RA_OF_ASC_NODE": 33.8808, "ARG_OF_PERICENTER": 278.1578, "MEAN_ANOMALY": 241.9669, "EPHEMERIS_TYPE": 0, "CLASSIFICATION_TYPE": "U", "NORAD_CAT_ID": 66341, "ELEMENT_SET_NO": 999, "REV_AT_EPOCH": 567, "BSTAR": -0.049829818, "MEAN_MOTION_DOT": -0.02090445, "MEAN_MOTION_DDOT": 0}, "tle": {"line1": "1 66341U 25253Y   25338.33335648 -.02090445  00000+0 -49830-1 0  9993", "line2": "2 66341  43.0004  33.8808 0001110 278.1578 241.9669 15.44406871  5679"}}, "geometry": {"type": "Point", "coordinates": [109.09618276376895, 42.19584133602684]}}, {"type": "Feature", "properties": {"norad_id": 66342, "name": "STARLINK-35535", "group": "last-30-days", "lat": 5.564398184025025, "lon": 38.63690096058071, "alt_km": 443.5088734191986, "timestamp": "2025-12-04T13:51:59.225418+00:00", "meta": {"OBJECT_NAME": "STARLINK-35535", "OBJECT_ID": "2025-253Z", "EPOCH": "2025-12-04T08:00:01.999872", "MEAN_MOTION": 15.407557, "ECCENTRICITY": 0.0001578, "INCLINATION": 43.0001, "RA_OF_ASC_NODE": 34.0446, "ARG_OF_PERICENTER": 257.7404, "MEAN_ANOMALY": 193.2422, "EPHEMERIS_TYPE": 0, "CLASSIFICATION_TYPE": "U", "NORAD_CAT_ID": 66342, "ELEMENT_SET_NO": 999, "REV_AT_EPOCH": 557, "BSTAR": -0.0041245675, "MEAN_MOTION_DOT": -0.0016915, "MEAN_MOTION_DDOT": 0}, "tle": {"line1": "1 66342U 25253Z   25338.33335648 -.00169150  00000+0 -41246-2 0  9996", "line2": "2 66342  43.0001  34.0446 0001578 257.7404 193.2422 15.40755700  5576"}}, "geometry": {"type": "Point", "coordinates": [38.63690096058071, 5.564398184025025]}}, {"type": "Feature", "properties": {"norad_id": 66343, "name": "STARLINK-35467", "group": "last-30-days", "lat": -19.376202934000997, "lon": 10.553949018282337, "alt_km": 445.82019937570203, "timestamp": "2025-12-04T13:51:59.225429+00:00", "meta": {"OBJECT_NAME": "STARLINK-35467", "OBJECT_ID": "2025-253AA", "EPOCH": "2025-12-04T08:00:01.999872", "MEAN_MOTION": 15.40810792, "ECCENTRICITY": 0.00014206, "INCLINATION": 43.0004, "RA_OF_ASC_NODE": 34.1357, "ARG_OF_PERICENTER": 251.0692, "MEAN_ANOMALY": 162.5824, "EPHEMERIS_TYPE": 0, "CLASSIFICATION_TYPE": "U", "NORAD_CAT_ID": 66343, "ELEMENT_SET_NO": 999, "REV_AT_EPOCH": 557, "BSTAR": -0.0063758855, "MEAN_MOTION_DOT": -0.00258764, "MEAN_MOTION_DDOT": 0}, "tle": {"line1": "1 66343U 25253AA  25338.33335648 -.00258764  00000+0 -63759-2 0  9990", "line2": "2 66343  43.0004  34.1357 0001420 251.0692 162.5824 15.40810792  5572"}}, "geometry": {"type": "Point", "coordinates": [10.553949018282337, -19.376202934000997]}}, {"type": "Feature", "properties": {"norad_id": 66344, "name": "STARLINK-35511", "group": "last-30-days", "lat": 33.26793583723071, "lon": 167.59544474019697, "alt_km": 410.42471440857753, "timestamp": "2025-12-04T13:51:59.225441+00:00", "meta": {"OBJECT_NAME": "STARLINK-35511", "OBJECT_ID": "2025-253AB", "EPOCH": "2025-12-04T04:02:54.289824", "MEAN_MOTION": 15.50595895, "ECCENTRICITY": 0.00013278, "INCLINATION": 43.0009, "RA_OF_ASC_NODE": 34.7407, "ARG_OF_PERICENTER": 272.093, "MEAN_ANOMALY": 87.9778, "EPHEMERIS_TYPE": 0, "CLASSIFICATION_TYPE": "U", "NORAD_CAT_ID": 66344, "ELEMENT_SET_NO": 999, "REV_AT_EPOCH": 560, "BSTAR": 0.000184478, "MEAN_MOTION_DOT": 0.00010502, "MEAN_MOTION_DDOT": 0}, "tle": {"line1": "1 66344U 25253AB  25338.16868391  .00010502  00000+0  18448-3 0  9998", "line2": "2 66344  43.0009  34.7407 0001327 272.0930  87.9778 15.50595895  5601"}}, "geometry": {"type": "Point", "coordinates": [167.59544474019697, 33.26793583723071]}}, {"type": "Feature", "properties": {"norad_id": 66345, "name": "STARLINK-35440", "group": "last-30-days", "lat": 42.824824017904156, "lon": 128.4031819162558, "alt_km": 433.68662851113004, "timestamp": "2025-12-04T13:51:59.225452+00:00", "meta": {"OBJECT_NAME": "STARLINK-35440", "OBJECT_ID": "2025-253AC", "EPOCH": "2025-12-04T08:00:01.999872", "MEAN_MOTION": 15.43244953, "ECCENTRICITY": 0.00010733, "INCLINATION": 43.0009, "RA_OF_ASC_NODE": 33.8386, "ARG_OF_PERICENTER": 269.3027, "MEAN_ANOMALY": 266.0229, "EPHEMERIS_TYPE": 0, "CLASSIFICATION_TYPE": "U", "NORAD_CAT_ID": 66345, "ELEMENT_SET_NO": 999, "REV_AT_EPOCH": 557, "BSTAR": -0.046079975, "MEAN_MOTION_DOT": -0.01881415, "MEAN_MOTION_DDOT": 0}, "tle": {"line1": "1 66345U 25253AC  25338.33335648 -.01881415  00000+0 -46080-1 0  9995", "line2": "2 66345  43.0009  33.8386 0001073 269.3027 266.0229 15.43244953  5577"}}, "geometry": {"type": "Point", "coordinates": [128.4031819162558, 42.824824017904156]}}]}